{
    "week": 294,
    "satellites": [
        {
            "Name": "GSAT0101 (GALILEO-PFM)",
            "Line1": "1 37846U 11060A   24332.79384600 -.00000074  00000+0  00000+0 0  9997",
            "Line2": "2 37846  57.1204 357.1084 0002333 307.8284  52.2069  1.70475953 81464",
            "SatelliteNumber": "37846",
            "Classification": "U",
            "LaunchYear": "11",
            "LaunchNumber": "060",
            "PieceOfLaunch": "A",
            "EpochYear": "24",
            "EpochDay": 332.793846,
            "FirstDerivativeMeanMotion": -7.4e-07,
            "SecondDerivativeMeanMotion": "00000+0",
            "BSTAR": "00000+0",
            "SetNumber": "999",
            "Inclination": 57.1204,
            "RAAN": 357.1084,
            "Eccentricity": 0.0002333,
            "ArgumentOfPerigee": 307.8284,
            "MeanAnomaly": 52.2069,
            "MeanMotion": 1.70475953,
            "RevolutionNumber": "8146"
        },
        {
            "Name": "GSAT0102 (GALILEO-FM2)",
            "Line1": "1 37847U 11060B   24332.13468553 -.00000077  00000+0  00000+0 0  9999",
            "Line2": "2 37847  57.1212 357.1265 0004249 301.8516  59.0293  1.70475467 81469",
            "SatelliteNumber": "37847",
            "Classification": "U",
            "LaunchYear": "11",
            "LaunchNumber": "060",
            "PieceOfLaunch": "B",
            "EpochYear": "24",
            "EpochDay": 332.13468553,
            "FirstDerivativeMeanMotion": -7.7e-07,
            "SecondDerivativeMeanMotion": "00000+0",
            "BSTAR": "00000+0",
            "SetNumber": "999",
            "Inclination": 57.1212,
            "RAAN": 357.1265,
            "Eccentricity": 0.0004249,
            "ArgumentOfPerigee": 301.8516,
            "MeanAnomaly": 59.0293,
            "MeanMotion": 1.70475467,
            "RevolutionNumber": "8146"
        },
        {
            "Name": "GSAT0103 (GALILEO-FM3)",
            "Line1": "1 38857U 12055A   24332.83322264  .00000053  00000+0  00000+0 0  9994",
            "Line2": "2 38857  55.4850 117.1067 0002368 249.6014 110.3483  1.70473558 75358",
            "SatelliteNumber": "38857",
            "Classification": "U",
            "LaunchYear": "12",
            "LaunchNumber": "055",
            "PieceOfLaunch": "A",
            "EpochYear": "24",
            "EpochDay": 332.83322264,
            "FirstDerivativeMeanMotion": 5.3e-07,
            "SecondDerivativeMeanMotion": "00000+0",
            "BSTAR": "00000+0",
            "SetNumber": "999",
            "Inclination": 55.485,
            "RAAN": 117.1067,
            "Eccentricity": 0.0002368,
            "ArgumentOfPerigee": 249.6014,
            "MeanAnomaly": 110.3483,
            "MeanMotion": 1.70473558,
            "RevolutionNumber": "7535"
        },
        {
            "Name": "GSAT0201 (GALILEO 5)",
            "Line1": "1 40128U 14050A   24332.40169931 -.00000090  00000+0  00000+0 0  9990",
            "Line2": "2 40128  49.4904 296.4907 1615478 157.5946 210.3640  1.85519707 67803",
            "SatelliteNumber": "40128",
            "Classification": "U",
            "LaunchYear": "14",
            "LaunchNumber": "050",
            "PieceOfLaunch": "A",
            "EpochYear": "24",
            "EpochDay": 332.40169931,
            "FirstDerivativeMeanMotion": -9e-07,
            "SecondDerivativeMeanMotion": "00000+0",
            "BSTAR": "00000+0",
            "SetNumber": "999",
            "Inclination": 49.4904,
            "RAAN": 296.4907,
            "Eccentricity": 0.1615478,
            "ArgumentOfPerigee": 157.5946,
            "MeanAnomaly": 210.364,
            "MeanMotion": 1.85519707,
            "RevolutionNumber": "6780"
        },
        {
            "Name": "GSAT0202 (GALILEO 6)",
            "Line1": "1 40129U 14050B   24333.19836992 -.00000086  00000+0  00000+0 0  9991",
            "Line2": "2 40129  49.5056 295.5379 1614869 158.4143 209.2719  1.85520410 69986",
            "SatelliteNumber": "40129",
            "Classification": "U",
            "LaunchYear": "14",
            "LaunchNumber": "050",
            "PieceOfLaunch": "B",
            "EpochYear": "24",
            "EpochDay": 333.19836992,
            "FirstDerivativeMeanMotion": -8.6e-07,
            "SecondDerivativeMeanMotion": "00000+0",
            "BSTAR": "00000+0",
            "SetNumber": "999",
            "Inclination": 49.5056,
            "RAAN": 295.5379,
            "Eccentricity": 0.1614869,
            "ArgumentOfPerigee": 158.4143,
            "MeanAnomaly": 209.2719,
            "MeanMotion": 1.8552041,
            "RevolutionNumber": "6998"
        },
        {
            "Name": "GSAT0203 (GALILEO 7)",
            "Line1": "1 40544U 15017A   24333.15925497 -.00000073  00000+0  00000+0 0  9997",
            "Line2": "2 40544  56.9151 357.0103 0006078 262.1482  97.8389  1.70476230 59559",
            "SatelliteNumber": "40544",
            "Classification": "U",
            "LaunchYear": "15",
            "LaunchNumber": "017",
            "PieceOfLaunch": "A",
            "EpochYear": "24",
            "EpochDay": 333.15925497,
            "FirstDerivativeMeanMotion": -7.3e-07,
            "SecondDerivativeMeanMotion": "00000+0",
            "BSTAR": "00000+0",
            "SetNumber": "999",
            "Inclination": 56.9151,
            "RAAN": 357.0103,
            "Eccentricity": 0.0006078,
            "ArgumentOfPerigee": 262.1482,
            "MeanAnomaly": 97.8389,
            "MeanMotion": 1.7047623,
            "RevolutionNumber": "5955"
        },
        {
            "Name": "GSAT0204 (GALILEO 8)",
            "Line1": "1 40545U 15017B   24330.48097688 -.00000083  00000+0  00000+0 0  9994",
            "Line2": "2 40545  56.9215 357.0994 0005849 251.3604 108.6290  1.70475809 22553",
            "SatelliteNumber": "40545",
            "Classification": "U",
            "LaunchYear": "15",
            "LaunchNumber": "017",
            "PieceOfLaunch": "B",
            "EpochYear": "24",
            "EpochDay": 330.48097688,
            "FirstDerivativeMeanMotion": -8.3e-07,
            "SecondDerivativeMeanMotion": "00000+0",
            "BSTAR": "00000+0",
            "SetNumber": "999",
            "Inclination": 56.9215,
            "RAAN": 357.0994,
            "Eccentricity": 0.0005849,
            "ArgumentOfPerigee": 251.3604,
            "MeanAnomaly": 108.629,
            "MeanMotion": 1.70475809,
            "RevolutionNumber": "2255"
        },
        {
            "Name": "GSAT0205 (GALILEO 9)",
            "Line1": "1 40889U 15045A   24333.18239635  .00000004  00000+0  00000+0 0  9998",
            "Line2": "2 40889  55.1462 237.2414 0005709  32.8858 327.2046  1.70473082 57369",
            "SatelliteNumber": "40889",
            "Classification": "U",
            "LaunchYear": "15",
            "LaunchNumber": "045",
            "PieceOfLaunch": "A",
            "EpochYear": "24",
            "EpochDay": 333.18239635,
            "FirstDerivativeMeanMotion": 4e-08,
            "SecondDerivativeMeanMotion": "00000+0",
            "BSTAR": "00000+0",
            "SetNumber": "999",
            "Inclination": 55.1462,
            "RAAN": 237.2414,
            "Eccentricity": 0.0005709,
            "ArgumentOfPerigee": 32.8858,
            "MeanAnomaly": 327.2046,
            "MeanMotion": 1.70473082,
            "RevolutionNumber": "5736"
        },
        {
            "Name": "GSAT0206 (GALILEO 10)",
            "Line1": "1 40890U 15045B   24332.22981178 -.00000004  00000+0  00000+0 0  9991",
            "Line2": "2 40890  55.1449 237.2628 0003153  14.4769 345.5812  1.70473151 57373",
            "SatelliteNumber": "40890",
            "Classification": "U",
            "LaunchYear": "15",
            "LaunchNumber": "045",
            "PieceOfLaunch": "B",
            "EpochYear": "24",
            "EpochDay": 332.22981178,
            "FirstDerivativeMeanMotion": -4e-08,
            "SecondDerivativeMeanMotion": "00000+0",
            "BSTAR": "00000+0",
            "SetNumber": "999",
            "Inclination": 55.1449,
            "RAAN": 237.2628,
            "Eccentricity": 0.0003153,
            "ArgumentOfPerigee": 14.4769,
            "MeanAnomaly": 345.5812,
            "MeanMotion": 1.70473151,
            "RevolutionNumber": "5737"
        },
        {
            "Name": "GSAT0209 (GALILEO 12)",
            "Line1": "1 41174U 15079A   24331.22588431  .00000054  00000+0  00000+0 0  9992",
            "Line2": "2 41174  55.5037 116.8614 0001884 348.1974  11.7796  1.70474574 55097",
            "SatelliteNumber": "41174",
            "Classification": "U",
            "LaunchYear": "15",
            "LaunchNumber": "079",
            "PieceOfLaunch": "A",
            "EpochYear": "24",
            "EpochDay": 331.22588431,
            "FirstDerivativeMeanMotion": 5.4e-07,
            "SecondDerivativeMeanMotion": "00000+0",
            "BSTAR": "00000+0",
            "SetNumber": "999",
            "Inclination": 55.5037,
            "RAAN": 116.8614,
            "Eccentricity": 0.0001884,
            "ArgumentOfPerigee": 348.1974,
            "MeanAnomaly": 11.7796,
            "MeanMotion": 1.70474574,
            "RevolutionNumber": "5509"
        }
    ]
}